{"type": "FeatureCollection", "features": [ {"type": "Feature", "properties": {"norad_id": 36047, "name": "COSMOS 2251 DEB", "group": "cosmos-2251-debris", "lat": -71.53269895640548, "lon": -94.37221668806168, "alt_km": 583.9763765728758, "timestamp": "2025-12-17T10:52:54.749385+00:00", "meta": {"OBJECT_NAME": "COSMOS 2251 DEB", "OBJECT_ID": "1993-036AXJ", "EPOCH": "2025-12-16T04:44:59.714304", "MEAN_MOTION": 14.96120051, "ECCENTRICITY": 0.00083259, "INCLINATION": 74.0348, "RA_OF_ASC_NODE": 327.1709, "ARG_OF_PERICENTER": 355.1844, "MEAN_ANOMALY": 4.9259, "EPHEMERIS_TYPE": 0, "CLASSIFICATION_TYPE": "U", "NORAD_CAT_ID": 36047, "ELEMENT_SET_NO": 999, "REV_AT_EPOCH": 65991, "BSTAR": 0.0016966818, "MEAN_MOTION_DOT": 0.00019121, "MEAN_MOTION_DDOT": 0}, "tle": {"line1": "1 36047U 93036AXJ 25350.19791336  .00019121  00000+0  16967-2 0  9999", "line2": "2 36047  74.0348 327.1709 0008325 355.1844   4.9259 14.96120051659913"}}, "geometry": {"type": "Point", "coordinates": [-94.37221668806168, -71.53269895640548]}}, {"type": "Feature", "properties": {"norad_id": 36048, "name": "COSMOS 2251 DEB", "group": "cosmos-2251-debris", "lat": -54.98875258507313, "lon": -93.46717442520595, "alt_km": 757.152208422277, "timestamp": "2025-12-17T10:52:54.749395+00:00", "meta": {"OBJECT_NAME": "COSMOS 2251 DEB", "OBJECT_ID": "1993-036AXK", "EPOCH": "2025-12-16T14:16:03.044352", "MEAN_MOTION": 14.37859124, "ECCENTRICITY": 0.00267775, "INCLINATION": 74.057, "RA_OF_ASC_NODE": 292.1955, "ARG_OF_PERICENTER": 341.4062, "MEAN_ANOMALY": 196.1443, "EPHEMERIS_TYPE": 0, "CLASSIFICATION_TYPE": "U", "NORAD_CAT_ID": 36048, "ELEMENT_SET_NO": 999, "REV_AT_EPOCH": 85557, "BSTAR": 0.00026609336, "MEAN_MOTION_DOT": 7.8e-06, "MEAN_MOTION_DDOT": 0}, "tle": {"line1": "1 36048U 93036AXK 25350.59447968  .00000780  00000+0  26609-3 0  9999", "line2": "2 36048  74.0570 292.1955 0026777 341.4062 196.1443 14.37859124855570"}}, "geometry": {"type": "Point", "coordinates": [-93.46717442520595, -54.98875258507313]}}, {"type": "Feature", "properties": {"norad_id": 36049, "name": "COSMOS 2251 DEB", "group": "cosmos-2251-debris", "lat": 71.13433906995508, "lon": -126.78247612105908, "alt_km": 679.6210471051045, "timestamp": "2025-12-17T10:52:54.749405+00:00", "meta": {"OBJECT_NAME": "COSMOS 2251 DEB", "OBJECT_ID": "1993-036AXL", "EPOCH": "2025-12-14T15:06:03.977280", "MEAN_MOTION": 14.62178283, "ECCENTRICITY": 0.00106433, "INCLINATION": 74.0297, "RA_OF_ASC_NODE": 115.562, "ARG_OF_PERICENTER": 202.4764, "MEAN_ANOMALY": 157.5938, "EPHEMERIS_TYPE": 0, "CLASSIFICATION_TYPE": "U", "NORAD_CAT_ID": 36049, "ELEMENT_SET_NO": 999, "REV_AT_EPOCH": 85392, "BSTAR": 0.0012373854, "MEAN_MOTION_DOT": 6.209e-05, "MEAN_MOTION_DDOT": 0}, "tle": {"line1": "1 36049U 93036AXL 25348.62921270  .00006209  00000+0  12374-2 0  9999", "line2": "2 36049  74.0297 115.5620 0010643 202.4764 157.5938 14.62178283853929"}}, "geometry": {"type": "Point", "coordinates": [-126.78247612105908, 71.13433906995508]}}, {"type": "Feature", "properties": {"norad_id": 36050, "name": "COSMOS 2251 DEB", "group": "cosmos-2251-debris", "lat": 64.35521431735249, "lon": -32.19403351819501, "alt_km": 611.4651541271205, "timestamp": "2025-12-17T10:52:54.749415+00:00", "meta": {"OBJECT_NAME": "COSMOS 2251 DEB", "OBJECT_ID": "1993-036AXM", "EPOCH": "2025-12-15T21:35:48.459552", "MEAN_MOTION": 15.01080492, "ECCENTRICITY": 0.00887608, "INCLINATION": 74.0305, "RA_OF_ASC_NODE": 187.588, "ARG_OF_PERICENTER": 266.4769, "MEAN_ANOMALY": 92.6264, "EPHEMERIS_TYPE": 0, "CLASSIFICATION_TYPE": "U", "NORAD_CAT_ID": 36050, "ELEMENT_SET_NO": 999, "REV_AT_EPOCH": 67082, "BSTAR": 0.00042445305, "MEAN_MOTION_DOT": 5.866e-05, "MEAN_MOTION_DDOT": 0}, "tle": {"line1": "1 36050U 93036AXM 25349.89986643  .00005866  00000+0  42445-3 0  9997", "line2": "2 36050  74.0305 187.5880 0088760 266.4769  92.6264 15.01080492670823"}}, "geometry": {"type": "Point", "coordinates": [-32.19403351819501, 64.35521431735249]}}, {"type": "Feature", "properties": {"norad_id": 36053, "name": "COSMOS 2251 DEB", "group": "cosmos-2251-debris", "lat": -5.907252119686705, "lon": 141.9258777672459, "alt_km": 708.3779444555794, "timestamp": "2025-12-17T10:52:54.749425+00:00", "meta": {"OBJECT_NAME": "COSMOS 2251 DEB", "OBJECT_ID": "1993-036AXQ", "EPOCH": "2025-12-14T10:24:52.276896", "MEAN_MOTION": 14.57209114, "ECCENTRICITY": 0.00325891, "INCLINATION": 73.8698, "RA_OF_ASC_NODE": 149.4338, "ARG_OF_PERICENTER": 97.9449, "MEAN_ANOMALY": 262.5415, "EPHEMERIS_TYPE": 0, "CLASSIFICATION_TYPE": "U", "NORAD_CAT_ID": 36053, "ELEMENT_SET_NO": 999, "REV_AT_EPOCH": 87469, "BSTAR": 0.0016910413, "MEAN_MOTION_DOT": 7.671e-05, "MEAN_MOTION_DDOT": 0}, "tle": {"line1": "1 36053U 93036AXQ 25348.43393839  .00007671  00000+0  16910-2 0  9991", "line2": "2 36053  73.8698 149.4338 0032589  97.9449 262.5415 14.57209114874694"}}, "geometry": {"type": "Point", "coordinates": [141.9258777672459, -5.907252119686705]}}, {"type": "Feature", "properties": {"norad_id": 36058, "name": "COSMOS 2251 DEB", "group": "cosmos-2251-debris", "lat": 32.60470776500787, "lon": -166.08295253518924, "alt_km": 664.3231910231261, "timestamp": "2025-12-17T10:52:54.749436+00:00", "meta": {"OBJECT_NAME": "COSMOS 2251 DEB", "OBJECT_ID": "1993-036AXV", "EPOCH": "2025-12-16T09:31:35.831136", "MEAN_MOTION": 14.58710964, "ECCENTRICITY": 0.00443273, "INCLINATION": 74.0236, "RA_OF_ASC_NODE": 26.4887, "ARG_OF_PERICENTER": 159.9009, "MEAN_ANOMALY": 200.3914, "EPHEMERIS_TYPE": 0, "CLASSIFICATION_TYPE": "U", "NORAD_CAT_ID": 36058, "ELEMENT_SET_NO": 999, "REV_AT_EPOCH": 66164, "BSTAR": 0.00034845634, "MEAN_MOTION_DOT": 1.618e-05, "MEAN_MOTION_DDOT": 0}, "tle": {"line1": "1 36058U 93036AXV 25350.39694249  .00001618  00000+0  34846-3 0  9997", "line2": "2 36058  74.0236  26.4887 0044327 159.9009 200.3914 14.58710964661641"}}, "geometry": {"type": "Point", "coordinates": [-166.08295253518924, 32.60470776500787]}}, {"type": "Feature", "properties": {"norad_id": 36060, "name": "COSMOS 2251 DEB", "group": "cosmos-2251-debris", "lat": 51.41272017065589, "lon": 24.791424411493583, "alt_km": 757.2782611332068, "timestamp": "2025-12-17T10:52:54.749564+00:00", "meta": {"OBJECT_NAME": "COSMOS 2251 DEB", "OBJECT_ID": "1993-036AXX", "EPOCH": "2025-12-16T09:19:34.584672", "MEAN_MOTION": 14.42007942, "ECCENTRICITY": 0.00154048, "INCLINATION": 74.0284, "RA_OF_ASC_NODE": 227.7996, "ARG_OF_PERICENTER": 324.3572, "MEAN_ANOMALY": 35.6554, "EPHEMERIS_TYPE": 0, "CLASSIFICATION_TYPE": "U", "NORAD_CAT_ID": 36060, "ELEMENT_SET_NO": 999, "REV_AT_EPOCH": 85062, "BSTAR": 0.00029610749, "MEAN_MOTION_DOT": 9.46e-06, "MEAN_MOTION_DDOT": 0}, "tle": {"line1": "1 36060U 93036AXX 25350.38859473  .00000946  00000+0  29611-3 0  9998", "line2": "2 36060  74.0284 227.7996 0015404 324.3572  35.6554 14.42007942850626"}}, "geometry": {"type": "Point", "coordinates": [24.791424411493583, 51.41272017065589]}}, {"type": "Feature", "properties": {"norad_id": 36061, "name": "COSMOS 2251 DEB", "group": "cosmos-2251-debris", "lat": 12.576566639713048, "lon": 167.4691050408029, "alt_km": 779.6625022020671, "timestamp": "2025-12-17T10:52:54.749576+00:00", "meta": {"OBJECT_NAME": "COSMOS 2251 DEB", "OBJECT_ID": "1993-036AXY", "EPOCH": "2025-12-15T17:55:08.095872", "MEAN_MOTION": 14.33713146, "ECCENTRICITY": 0.00367991, "INCLINATION": 74.0242, "RA_OF_ASC_NODE": 354.2562, "ARG_OF_PERICENTER": 81.2237, "MEAN_ANOMALY": 279.3079, "EPHEMERIS_TYPE": 0, "CLASSIFICATION_TYPE": "U", "NORAD_CAT_ID": 36061, "ELEMENT_SET_NO": 999, "REV_AT_EPOCH": 65147, "BSTAR": 0.00027590632, "MEAN_MOTION_DOT": 7.46e-06, "MEAN_MOTION_DDOT": 0}, "tle": {"line1": "1 36061U 93036AXY 25349.74662148  .00000746  00000+0  27591-3 0  9991", "line2": "2 36061  74.0242 354.2562 0036799  81.2237 279.3079 14.33713146651474"}}, "geometry": {"type": "Point", "coordinates": [167.4691050408029, 12.576566639713048]}}, {"type": "Feature", "properties": {"norad_id": 36073, "name": "COSMOS 2251 DEB", "group": "cosmos-2251-debris", "lat": -69.13149360930173, "lon": -94.76116898125592, "alt_km": 784.1759004209789, "timestamp": "2025-12-17T10:52:54.749586+00:00", "meta": {"OBJECT_NAME": "COSMOS 2251 DEB", "OBJECT_ID": "1993-036AYL", "EPOCH": "2025-12-14T06:16:10.983072", "MEAN_MOTION": 14.34955439, "ECCENTRICITY": 0.00239275, "INCLINATION": 74.0321, "RA_OF_ASC_NODE": 319.7693, "ARG_OF_PERICENTER": 27.306, "MEAN_ANOMALY": 332.9344, "EPHEMERIS_TYPE": 0, "CLASSIFICATION_TYPE": "U", "NORAD_CAT_ID": 36073, "ELEMENT_SET_NO": 999, "REV_AT_EPOCH": 70229, "BSTAR": 0.0003171948, "MEAN_MOTION_DOT": 8.79e-06, "MEAN_MOTION_DDOT": 0}, "tle": {"line1": "1 36073U 93036AYL 25348.26123823  .00000879  00000+0  31719-3 0  9996", "line2": "2 36073  74.0321 319.7693 0023927  27.3060 332.9344 14.34955439702292"}}, "geometry": {"type": "Point", "coordinates": [-94.76116898125592, -69.13149360930173]}}, {"type": "Feature", "properties": {"norad_id": 36074, "name": "COSMOS 2251 DEB", "group": "cosmos-2251-debris", "lat": -29.75226784094291, "lon": 161.15524035717755, "alt_km": 776.373608060414, "timestamp": "2025-12-17T10:52:54.749596+00:00", "meta": {"OBJECT_NAME": "COSMOS 2251 DEB", "OBJECT_ID": "1993-036AYM", "EPOCH": "2025-12-04T07:35:54.379968", "MEAN_MOTION": 14.43651509, "ECCENTRICITY": 0.0041318, "INCLINATION": 73.9929, "RA_OF_ASC_NODE": 356.1864, "ARG_OF_PERICENTER": 90.6412, "MEAN_ANOMALY": 269.9479, "EPHEMERIS_TYPE": 0, "CLASSIFICATION_TYPE": "U", "NORAD_CAT_ID": 36074, "ELEMENT_SET_NO": 999, "REV_AT_EPOCH": 85788, "BSTAR": 0.0017767, "MEAN_MOTION_DOT": 6.071e-05, "MEAN_MOTION_DDOT": 0}, "tle": {"line1": "1 36074U 93036AYM 25338.31660162  .00006071  00000+0  17767-2 0  9990", "line2": "2 36074  73.9929 356.1864 0041318  90.6412 269.9479 14.43651509857883"}}, "geometry": {"type": "Point", "coordinates": [161.15524035717755, -29.75226784094291]}}]}